[
    {
        "Altitude(m)": 604234.5920492082,
        "Argument of Periapsis(deg)": 0.0,
        "Eccentricity": 0.0,
        "Inclination(deg)": 60.0,
        "Latitude(deg)": 14.117137788870966,
        "Longitude(deg)": -118.27265542986251,
        "Mean Anomaly(deg)": 163.6364,
        "RAAN(deg)": 170.00000000000003,
        "Satellite Name": "Test1 758",
        "Satellite Number": 758,
        "Semi-Major Axis(m)": 6980739.136638005,
        "Time(s)": 0
    },
    {
        "Altitude(m)": 604223.4211601575,
        "Argument of Periapsis(deg)": 0.00010418945913296404,
        "Eccentricity": 0.0,
        "Inclination(deg)": 60.0,
        "Latitude(deg)": 13.582273806355557,
        "Longitude(deg)": -117.98574704984642,
        "Mean Anomaly(deg)": 164.25650614546186,
        "RAAN(deg)": 169.99957995086027,
        "Satellite Name": "Test1 758",
        "Satellite Number": 758,
        "Semi-Major Axis(m)": 6980739.136638005,
        "Time(s)": 10
    }
]